STARLINK-1559           
1 46077U 20055BC  26068.23360559  .00042685  00000+0  14779-2 0  9995
2 46077  53.0254  76.0659 0004229  33.9710 326.1559 15.29461733309518
STARLINK-32668          
1 62212U 24229W   26067.60967246  .00032951  00000+0  12001-2 0  9998
2 62212  43.0037 273.5771 0002246 259.5738 100.4861 15.27621238 70438
