[{"OBJECT_NAME":"STARLINK-1559","OBJECT_ID":"2020-055BC","EPOCH":"2026-03-09T05:36:23.522976","MEAN_MOTION":15.29461733,"ECCENTRICITY":0.0004229,"INCLINATION":53.0254,"RA_OF_ASC_NODE":76.0659,"ARG_OF_PERICENTER":33.971,"MEAN_ANOMALY":326.1559,"EPHEMERIS_TYPE":0,"CLASSIFICATION_TYPE":"U","NORAD_CAT_ID":46077,"ELEMENT_SET_NO":999,"REV_AT_EPOCH":30951,"BSTAR":0.0014778793,"MEAN_MOTION_DOT":0.00042685,"MEAN_MOTION_DDOT":0},{"OBJECT_NAME":"STARLINK-32668","OBJECT_ID":"2024-229W","EPOCH":"2026-03-08T14:37:55.700544","MEAN_MOTION":15.27621238,"ECCENTRICITY":0.00022466,"INCLINATION":43.0037,"RA_OF_ASC_NODE":273.5771,"ARG_OF_PERICENTER":259.5738,"MEAN_ANOMALY":100.4861,"EPHEMERIS_TYPE":0,"CLASSIFICATION_TYPE":"U","NORAD_CAT_ID":62212,"ELEMENT_SET_NO":999,"REV_AT_EPOCH":7043,"BSTAR":0.001200068,"MEAN_MOTION_DOT":0.00032951,"MEAN_MOTION_DDOT":0}]
